STARLINK-31509          
1 59533U 24073Y   26067.13664332  .00004389  00000+0  16880-3 0  9999
2 59533  43.0035 327.1834 0000888 323.7820  36.2971 15.27600841105939
FLOCK 4G-9              
1 62622U 25009P   26068.80935633  .00010752  00000+0  41817-3 0  9991
2 62622  97.4000 150.6115 0003614 328.2191  31.8829 15.26202239 63696
