[{"OBJECT_NAME":"STARLINK-31509","OBJECT_ID":"2024-073Y","EPOCH":"2026-03-08T03:16:45.982848","MEAN_MOTION":15.27600841,"ECCENTRICITY":8.887e-5,"INCLINATION":43.0035,"RA_OF_ASC_NODE":327.1834,"ARG_OF_PERICENTER":323.782,"MEAN_ANOMALY":36.2971,"EPHEMERIS_TYPE":0,"CLASSIFICATION_TYPE":"U","NORAD_CAT_ID":59533,"ELEMENT_SET_NO":999,"REV_AT_EPOCH":10593,"BSTAR":0.0001688003,"MEAN_MOTION_DOT":4.389e-5,"MEAN_MOTION_DDOT":0},{"OBJECT_NAME":"FLOCK 4G-9","OBJECT_ID":"2025-009P","EPOCH":"2026-03-09T19:25:28.387776","MEAN_MOTION":15.26202239,"ECCENTRICITY":0.00036141,"INCLINATION":97.4,"RA_OF_ASC_NODE":150.6115,"ARG_OF_PERICENTER":328.2191,"MEAN_ANOMALY":31.8829,"EPHEMERIS_TYPE":0,"CLASSIFICATION_TYPE":"U","NORAD_CAT_ID":62622,"ELEMENT_SET_NO":999,"REV_AT_EPOCH":6369,"BSTAR":0.00041816911,"MEAN_MOTION_DOT":0.00010752,"MEAN_MOTION_DDOT":0}]
